start=new Date('2021-11-03T00:00:00.000Z').valueOf();
sats=[{"GP_ID":"188774991","FILE":"3198350","REV_AT_EPOCH":"6035","CENTER_NAME":"EARTH","SITE":"AFETR","CLASSIFICATION_TYPE":"U","PERIOD":"95.591","BSTAR":"-0.00014724000000","INCLINATION":"53.0547","MEAN_MOTION_DOT":"-0.00002476","EPHEMERIS_TYPE":"0","OBJECT_NAME":"STARLINK-1660","OBJECT_ID":"2020-070AU","COUNTRY_CODE":"US","MEAN_MOTION":"15.06422240","RCS_SIZE":"LARGE","RA_OF_ASC_NODE":"90.8864","REF_FRAME":"TEME","ARG_OF_PERICENTER":"91.2673","DECAY_DATE":null,"NORAD_CAT_ID":"46574","APOAPSIS":"548.476","TLE_LINE1":"1 46574U 20070AU  21306.58895964 -.00002476  00000-0 -14724-3 0  9993","EPOCH":"2021-11-02T14:08:06.112896","TIME_SYSTEM":"UTC","OBJECT_TYPE":"PAYLOAD","MEAN_ANOMALY":"268.8536","MEAN_ELEMENT_THEORY":"SGP4","MEAN_MOTION_DDOT":"0.0000000000000","TLE_LINE2":"2 46574  53.0547  90.8864 0001922  91.2673 268.8536 15.06422240 60357","LAUNCH_DATE":"2020-10-06","ELEMENT_SET_NO":"999","SEMIMAJOR_AXIS":"6925.280","ECCENTRICITY":"0.00019220","PERIAPSIS":"545.814"},{"ARG_OF_PERICENTER":"82.3897","REF_FRAME":"TEME","RA_OF_ASC_NODE":"66.5142","RCS_SIZE":"LARGE","MEAN_MOTION":"15.06390360","NORAD_CAT_ID":"46575","APOAPSIS":"548.105","DECAY_DATE":null,"EPOCH":"2021-11-02T10:45:44.361504","TIME_SYSTEM":"UTC","OBJECT_TYPE":"PAYLOAD","TLE_LINE1":"1 46575U 20070AV  21306.44843011  .00001243  00000-0  10233-3 0  9995","PERIAPSIS":"546.381","ELEMENT_SET_NO":"999","SEMIMAJOR_AXIS":"6925.378","ECCENTRICITY":"0.00012450","LAUNCH_DATE":"2020-10-06","MEAN_ANOMALY":"277.7234","MEAN_ELEMENT_THEORY":"SGP4","MEAN_MOTION_DDOT":"0.0000000000000","TLE_LINE2":"2 46575  53.0544  66.5142 0001245  82.3897 277.7234 15.06390360 60688","GP_ID":"188739013","SITE":"AFETR","CENTER_NAME":"EARTH","REV_AT_EPOCH":"6068","FILE":"3197731","BSTAR":"0.00010233000000","PERIOD":"95.593","CLASSIFICATION_TYPE":"U","COUNTRY_CODE":"US","EPHEMERIS_TYPE":"0","OBJECT_NAME":"STARLINK-1675","OBJECT_ID":"2020-070AV","INCLINATION":"53.0544","MEAN_MOTION_DOT":"0.00001243"},{"GP_ID":"188774489","CENTER_NAME":"EARTH","REV_AT_EPOCH":"6037","FILE":"3198350","SITE":"AFETR","CLASSIFICATION_TYPE":"U","BSTAR":"0.00024288000000","PERIOD":"95.592","OBJECT_NAME":"STARLINK-1677","OBJECT_ID":"2020-070AW","EPHEMERIS_TYPE":"0","INCLINATION":"53.0530","MEAN_MOTION_DOT":"0.00003338","COUNTRY_CODE":"US","MEAN_MOTION":"15.06400442","ARG_OF_PERICENTER":"90.8640","REF_FRAME":"TEME","RA_OF_ASC_NODE":"90.3147","RCS_SIZE":"LARGE","DECAY_DATE":null,"APOAPSIS":"548.363","NORAD_CAT_ID":"46576","TLE_LINE1":"1 46576U 20070AW  21306.71430278  .00003338  00000-0  24288-3 0  9995","OBJECT_TYPE":"PAYLOAD","TIME_SYSTEM":"UTC","EPOCH":"2021-11-02T17:08:35.760192","LAUNCH_DATE":"2020-10-06","MEAN_MOTION_DDOT":"0.0000000000000","TLE_LINE2":"2 46576  53.0530  90.3147 0001662  90.8640 269.2540 15.06400442 60372","MEAN_ELEMENT_THEORY":"SGP4","MEAN_ANOMALY":"269.2540","PERIAPSIS":"546.061","ELEMENT_SET_NO":"999","SEMIMAJOR_AXIS":"6925.347","ECCENTRICITY":"0.00016620"},{"MEAN_MOTION":"15.06407323","RA_OF_ASC_NODE":"90.4861","RCS_SIZE":"LARGE","REF_FRAME":"TEME","ARG_OF_PERICENTER":"83.6286","DECAY_DATE":null,"APOAPSIS":"548.239","NORAD_CAT_ID":"46577","TLE_LINE1":"1 46577U 20070AX  21306.67743137  .00003025  00000-0  22182-3 0  9996","EPOCH":"2021-11-02T16:15:30.070368","OBJECT_TYPE":"PAYLOAD","TIME_SYSTEM":"UTC","MEAN_ANOMALY":"276.4875","MEAN_ELEMENT_THEORY":"SGP4","MEAN_MOTION_DDOT":"0.0000000000000","TLE_LINE2":"2 46577  53.0548  90.4861 0001513  83.6286 276.4875 15.06407323 60362","LAUNCH_DATE":"2020-10-06","ELEMENT_SET_NO":"999","SEMIMAJOR_AXIS":"6925.326","ECCENTRICITY":"0.00015130","PERIAPSIS":"546.143","GP_ID":"188774741","FILE":"3198350","REV_AT_EPOCH":"6036","CENTER_NAME":"EARTH","SITE":"AFETR","CLASSIFICATION_TYPE":"U","PERIOD":"95.592","BSTAR":"0.00022182000000","MEAN_MOTION_DOT":"0.00003025","INCLINATION":"53.0548","EPHEMERIS_TYPE":"0","OBJECT_ID":"2020-070AX","OBJECT_NAME":"STARLINK-1682","COUNTRY_CODE":"US"},{"MEAN_ANOMALY":"269.7557","MEAN_ELEMENT_THEORY":"SGP4","TLE_LINE2":"2 46578  53.0557  75.5954 0001226  90.3572 269.7557 15.06392722 60575","MEAN_MOTION_DDOT":"0.0000000000000","LAUNCH_DATE":"2020-10-06","SEMIMAJOR_AXIS":"6925.371","ELEMENT_SET_NO":"999","ECCENTRICITY":"0.00012260","PERIAPSIS":"546.387","TLE_LINE1":"1 46578U 20070AY  21306.65391361 -.00000249  00000-0  21885-5 0  9990","EPOCH":"2021-11-02T15:41:38.135904","OBJECT_TYPE":"PAYLOAD","TIME_SYSTEM":"UTC","DECAY_DATE":null,"APOAPSIS":"548.085","NORAD_CAT_ID":"46578","MEAN_MOTION":"15.06392722","RCS_SIZE":"LARGE","RA_OF_ASC_NODE":"75.5954","REF_FRAME":"TEME","ARG_OF_PERICENTER":"90.3572","INCLINATION":"53.0557","MEAN_MOTION_DOT":"-0.00000249","EPHEMERIS_TYPE":"0","OBJECT_NAME":"STARLINK-1683","OBJECT_ID":"2020-070AY","COUNTRY_CODE":"US","CLASSIFICATION_TYPE":"U","PERIOD":"95.593","BSTAR":"0.00000218850000","FILE":"3198350","CENTER_NAME":"EARTH","REV_AT_EPOCH":"6057","SITE":"AFETR","GP_ID":"188775491"},{"ARG_OF_PERICENTER":"88.0889","REF_FRAME":"TEME","RCS_SIZE":"LARGE","RA_OF_ASC_NODE":"90.5551","MEAN_MOTION":"15.06399768","APOAPSIS":"548.176","NORAD_CAT_ID":"46579","DECAY_DATE":null,"EPOCH":"2021-11-02T15:54:16.477344","OBJECT_TYPE":"PAYLOAD","TIME_SYSTEM":"UTC","TLE_LINE1":"1 46579U 20070AZ  21306.66269071  .00000871  00000-0  77371-4 0  9994","PERIAPSIS":"546.253","SEMIMAJOR_AXIS":"6925.349","ELEMENT_SET_NO":"999","ECCENTRICITY":"0.00013880","LAUNCH_DATE":"2020-10-06","MEAN_ELEMENT_THEORY":"SGP4","MEAN_ANOMALY":"272.0259","MEAN_MOTION_DDOT":"0.0000000000000","TLE_LINE2":"2 46579  53.0541  90.5551 0001388  88.0889 272.0259 15.06399768 60363","GP_ID":"188773740","SITE":"AFETR","CENTER_NAME":"EARTH","REV_AT_EPOCH":"6036","FILE":"3198350","BSTAR":"0.00007737100000","PERIOD":"95.592","CLASSIFICATION_TYPE":"U","COUNTRY_CODE":"US","EPHEMERIS_TYPE":"0","OBJECT_NAME":"STARLINK-1705","OBJECT_ID":"2020-070AZ","INCLINATION":"53.0541","MEAN_MOTION_DOT":"0.00000871"},{"ARG_OF_PERICENTER":"77.6225","REF_FRAME":"TEME","RCS_SIZE":"LARGE","RA_OF_ASC_NODE":"90.3464","MEAN_MOTION":"15.06400284","APOAPSIS":"548.305","NORAD_CAT_ID":"46580","DECAY_DATE":null,"OBJECT_TYPE":"PAYLOAD","TIME_SYSTEM":"UTC","EPOCH":"2021-11-02T16:57:57.615840","TLE_LINE1":"1 46580U 20070BA  21306.70691685  .00000760  00000-0  69910-4 0  9998","PERIAPSIS":"546.121","ECCENTRICITY":"0.00015770","SEMIMAJOR_AXIS":"6925.348","ELEMENT_SET_NO":"999","LAUNCH_DATE":"2020-10-06","MEAN_MOTION_DDOT":"0.0000000000000","TLE_LINE2":"2 46580  53.0537  90.3464 0001577  77.6225 282.4940 15.06400284 60378","MEAN_ELEMENT_THEORY":"SGP4","MEAN_ANOMALY":"282.4940","GP_ID":"188773990","SITE":"AFETR","REV_AT_EPOCH":"6037","CENTER_NAME":"EARTH","FILE":"3198350","BSTAR":"0.00006991000000","PERIOD":"95.592","CLASSIFICATION_TYPE":"U","COUNTRY_CODE":"US","OBJECT_NAME":"STARLINK-1708","OBJECT_ID":"2020-070BA","EPHEMERIS_TYPE":"0","INCLINATION":"53.0537","MEAN_MOTION_DOT":"0.00000760"},{"FILE":"3198350","CENTER_NAME":"EARTH","REV_AT_EPOCH":"6043","SITE":"AFETR","GP_ID":"188775241","INCLINATION":"53.0548","MEAN_MOTION_DOT":"-0.00000330","OBJECT_ID":"2020-070BB","OBJECT_NAME":"STARLINK-1712","EPHEMERIS_TYPE":"0","COUNTRY_CODE":"US","CLASSIFICATION_TYPE":"U","PERIOD":"95.592","BSTAR":"-0.00000323440000","DECAY_DATE":null,"APOAPSIS":"548.339","NORAD_CAT_ID":"46581","MEAN_MOTION":"15.06396652","RA_OF_ASC_NODE":"85.4916","RCS_SIZE":"LARGE","ARG_OF_PERICENTER":"79.1599","REF_FRAME":"TEME","TLE_LINE2":"2 46581  53.0548  85.4916 0001610  79.1599 280.9571 15.06396652 60430","MEAN_MOTION_DDOT":"0.0000000000000","MEAN_ANOMALY":"280.9571","MEAN_ELEMENT_THEORY":"SGP4","LAUNCH_DATE":"2020-10-06","SEMIMAJOR_AXIS":"6925.359","ECCENTRICITY":"0.00016100","ELEMENT_SET_NO":"999","PERIAPSIS":"546.109","TLE_LINE1":"1 46581U 20070BB  21306.67236355 -.00000330  00000-0 -32344-5 0  9991","TIME_SYSTEM":"UTC","OBJECT_TYPE":"PAYLOAD","EPOCH":"2021-11-02T16:08:12.210720"},{"GP_ID":"188774992","SITE":"AFETR","CENTER_NAME":"EARTH","REV_AT_EPOCH":"6043","FILE":"3198350","BSTAR":"0.00008784700000","PERIOD":"95.592","CLASSIFICATION_TYPE":"U","COUNTRY_CODE":"US","EPHEMERIS_TYPE":"0","OBJECT_ID":"2020-070BC","OBJECT_NAME":"STARLINK-1728","MEAN_MOTION_DOT":"0.00001027","INCLINATION":"53.0556","REF_FRAME":"TEME","ARG_OF_PERICENTER":"75.9029","RA_OF_ASC_NODE":"85.5494","RCS_SIZE":"LARGE","MEAN_MOTION":"15.06407819","APOAPSIS":"548.217","NORAD_CAT_ID":"46582","DECAY_DATE":null,"EPOCH":"2021-11-02T15:56:12.959232","TIME_SYSTEM":"UTC","OBJECT_TYPE":"PAYLOAD","TLE_LINE1":"1 46582U 20070BC  21306.66403888  .00001027  00000-0  87847-4 0  9997","PERIAPSIS":"546.163","SEMIMAJOR_AXIS":"6925.325","ECCENTRICITY":"0.00014830","ELEMENT_SET_NO":"999","LAUNCH_DATE":"2020-10-06","MEAN_ANOMALY":"284.2125","MEAN_ELEMENT_THEORY":"SGP4","TLE_LINE2":"2 46582  53.0556  85.5494 0001483  75.9029 284.2125 15.06407819 60432","MEAN_MOTION_DDOT":"0.0000000000000"},{"TLE_LINE1":"1 46583U 20070BD  21306.70739471  .00003834  00000-0  27609-3 0  9990","OBJECT_TYPE":"PAYLOAD","TIME_SYSTEM":"UTC","EPOCH":"2021-11-02T16:58:38.902944","LAUNCH_DATE":"2020-10-06","MEAN_MOTION_DDOT":"0.0000000000000","TLE_LINE2":"2 46583  53.0538 105.3571 0001612  89.8637 270.2536 15.06411646 60156","MEAN_ELEMENT_THEORY":"SGP4","MEAN_ANOMALY":"270.2536","PERIAPSIS":"546.062","SEMIMAJOR_AXIS":"6925.313","ELEMENT_SET_NO":"999","ECCENTRICITY":"0.00016120","MEAN_MOTION":"15.06411646","ARG_OF_PERICENTER":"89.8637","REF_FRAME":"TEME","RA_OF_ASC_NODE":"105.3571","RCS_SIZE":"LARGE","DECAY_DATE":null,"APOAPSIS":"548.294","NORAD_CAT_ID":"46583","CLASSIFICATION_TYPE":"U","BSTAR":"0.00027609000000","PERIOD":"95.591","OBJECT_NAME":"STARLINK-1729","OBJECT_ID":"2020-070BD","EPHEMERIS_TYPE":"0","INCLINATION":"53.0538","MEAN_MOTION_DOT":"0.00003834","COUNTRY_CODE":"US","GP_ID":"188774240","CENTER_NAME":"EARTH","REV_AT_EPOCH":"6015","FILE":"3198350","SITE":"AFETR"}];
